{
  "type": "FeatureCollection",
  "features": [
    {
      "type": "Feature",
      "geometry": { "type": "Point", "coordinates": [22.9444, 40.6401] },
      "properties": {
        "location_name": "Salonica / Selanik",
        "primary_language": "Ladino (Judeo-Spanish)",
        "secondary_languages": "Ottoman Turkish, Greek, Bulgarian",
        "language_family": "Romance",
        "mebusan_members": "Emanuel Karasu, Cavid Bey, Vitalis Mallah, Dimitrios Digkas",
        "source_citation": "Cuinet (1892), Vol 3, p. 12"
      }
    },
    {
      "type": "Feature",
      "geometry": { "type": "Point", "coordinates": [28.9784, 41.0082] },
      "properties": {
        "location_name": "Istanbul / Dersaadet",
        "primary_language": "Ottoman Turkish",
        "secondary_languages": "Greek, Armenian, Ladino, French",
        "language_family": "Turkic",
        "mebusan_members": "Kirkor Zohrab, Hüseyin Cahit Yalçın, Kozmidi Efendi, Bedros Halacıyan",
        "source_citation": "Karpat (1985), p. 102"
      }
    },
    {
      "type": "Feature",
      "geometry": { "type": "Point", "coordinates": [27.1428, 38.4237] },
      "properties": {
        "location_name": "Smyrna / Izmir",
        "primary_language": "Greek",
        "secondary_languages": "Ottoman Turkish, Ladino, French, Armenian",
        "language_family": "Hellenic",
        "mebusan_members": "Seyyid Bey, Aristidi Pasha, Emmanuel Emmanuelidi, Nesim Masliyah",
        "source_citation": "Cuinet (1892), Vol 3, p. 340"
      }
    },
    {
      "type": "Feature",
      "geometry": { "type": "Point", "coordinates": [44.3661, 33.3152] },
      "properties": {
        "location_name": "Baghdad",
        "primary_language": "Arabic",
        "secondary_languages": "Ottoman Turkish, Persian, Judeo-Arabic, Syriac",
        "language_family": "Semitic",
        "mebusan_members": "Sassoon Eskell (Sason Efendi), Isma'il Haqqi, Fuad al-Daftari",
        "source_citation": "Cuinet (1892), Vol 3, p. 18"
      }
    },
    {
      "type": "Feature",
      "geometry": { "type": "Point", "coordinates": [37.1343, 36.2021] },
      "properties": {
        "location_name": "Aleppo / Halab",
        "primary_language": "Arabic",
        "secondary_languages": "Ottoman Turkish, Armenian, Judeo-Arabic",
        "language_family": "Semitic",
        "mebusan_members": "Artin Boshgezenian, Mustafa Taki Efendi, Ali Cenani Bey",
        "source_citation": "Cuinet (1891), Vol 2, p. 112"
      }
    },
    {
      "type": "Feature",
      "geometry": { "type": "Point", "coordinates": [43.1300, 36.3400] },
      "properties": {
        "location_name": "Mosul",
        "primary_language": "Arabic",
        "secondary_languages": "Kurdish, Syriac (Neo-Aramaic), Ottoman Turkish",
        "language_family": "Semitic",
        "mebusan_members": "Muhammad 'Ali Fadhil, Dawud Yusufani",
        "source_citation": "Cuinet (1892), Vol 3, p. 760"
      }
    },
    {
      "type": "Feature",
      "geometry": { "type": "Point", "coordinates": [36.2765, 33.5138] },
      "properties": {
        "location_name": "Damascus / Şam",
        "primary_language": "Arabic",
        "secondary_languages": "Ottoman Turkish, Judeo-Arabic",
        "language_family": "Semitic",
        "mebusan_members": "Shukri al-Asali, Shafiq al-Mu'ayyad, Rushdi al-Sham'a",
        "source_citation": "Cuinet (1891), Vol 2, p. 250"
      }
    },
    {
      "type": "Feature", "geometry": { "type": "Point", "coordinates": [35.5018, 33.8938] },
      "properties": {
        "location_name": "Beirut",
        "primary_language": "Arabic",
        "secondary_languages": "French, Ottoman Turkish, Greek",
        "language_family": "Semitic",
        "mebusan_members": "Rida al-Solh, Sulayman al-Bustani, Salim Ali Salam",
        "source_citation": "Cuinet (1896), Vol 4, p. 55"
      }
    },
    {
      "type": "Feature",
      "geometry": { "type": "Point", "coordinates": [26.5557, 41.6771] },
      "properties": {
        "location_name": "Edirne / Adrianople",
        "primary_language": "Ottoman Turkish",
        "secondary_languages": "Ladino, Greek, Bulgarian",
        "language_family": "Turkic",
        "mebusan_members": "Mehmed Talaat Pasha, Faik Kaltakkıran, Gregorios Efendi",
        "source_citation": "Cuinet (1892), Vol 1, p. 620"
      }
    },
    {
      "type": "Feature",
      "geometry": { "type": "Point", "coordinates": [21.3347, 41.0311] },
      "properties": {
        "location_name": "Monastir / Bitola",
        "primary_language": "Bulgarian",
        "secondary_languages": "Ottoman Turkish, Aromanian, Greek, Albanian",
        "language_family": "Slavic",
        "mebusan_members": "Ali Fethi Okyar, Panche Dorev, Trajan Nali",
        "source_citation": "Brailsford (1906), p. 85"
      }
    }
[
  {
    "type": "Feature",
    "geometry": { "type": "Point", "coordinates": [41.2679, 39.9043] },
    "properties": {
      "location_name": "Erzurum",
      "primary_language": "Ottoman Turkish",
      "secondary_languages": "Armenian, Kurdish",
      "language_family": "Turkic",
      "mebusan_members": "Vartkes Serengülyan, Pastırmacıyan Karekin Efendi (Armen Karo), Hoca Raif Efendi",
      "source_citation": "Cuinet (1891), Vol 1, p. 130"
    }
  },
  {
    "type": "Feature",
    "geometry": { "type": "Point", "coordinates": [39.2528, 38.7039] },
    "properties": {
      "location_name": "Harput / Mamuretülaziz",
      "primary_language": "Ottoman Turkish",
      "secondary_languages": "Armenian, Kurdish",
      "language_family": "Turkic",
      "mebusan_members": "Çötelizade Asim Bey, Mehmed Nuri Efendi, Arşag Şirinyan",
      "source_citation": "Cuinet (1891), Vol 2, p. 320"
    }
  },
  {
    "type": "Feature",
    "geometry": { "type": "Point", "coordinates": [32.4844, 37.8714] },
    "properties": {
      "location_name": "Konya",
      "primary_language": "Ottoman Turkish",
      "secondary_languages": "Greek (Karamanli Turkish)",
      "language_family": "Turkic",
      "mebusan_members": "Mehmet Vehbi Efendi (Çelik), Zeynelabidin Efendi, Mustafa Lütfi Efendi",
      "source_citation": "Cuinet (1891), Vol 1, p. 800"
    }
  },
  {
    "type": "Feature",
    "geometry": { "type": "Point", "coordinates": [43.0975, 40.6013] },
    "properties": {
      "location_name": "Kars",
      "primary_language": "Ottoman Turkish",
      "secondary_languages": "Armenian, Georgian, Russian",
      "language_family": "Turkic",
      "mebusan_members": "N/A (Ceded to Russia in 1878 Treaty of Berlin; rejoined Ottoman realm 1918)",
      "source_citation": "Allen & Muratoff (1953), p. 210"
    }
  },
  {
    "type": "Feature",
    "geometry": { "type": "Point", "coordinates": [40.2306, 37.9144] },
    "properties": {
      "location_name": "Diyarbakır / Diyarbekir",
      "primary_language": "Ottoman Turkish",
      "secondary_languages": "Kurdish, Armenian, Syriac",
      "language_family": "Turkic",
      "mebusan_members": "Ziya Gökalp, Pirinççizade Arif Bey, Siret Bey",
      "source_citation": "Cuinet (1891), Vol 2, p. 450"
    }
  },
  {
    "type": "Feature",
    "geometry": { "type": "Point", "coordinates": [35.2137, 31.7683] },
    "properties": {
      "location_name": "Jerusalem / Kudüs-i Şerif",
      "primary_language": "Arabic",
      "secondary_languages": "Ottoman Turkish, Ladino, Yiddish, Armenian",
      "language_family": "Semitic",
      "mebusan_members": "Ruhi al-Khalidi, Said al-Husseini, Raghib al-Nashashibi",
      "source_citation": "Cuinet (1896), Vol 4, p. 180"
    }
  },
    {
      "type": "Feature",
      "geometry": { "type": "Point", "coordinates": [19.5121, 42.0693] },
      "properties": {
        "location_name": "Scutari / Shkodër",
        "primary_language": "Albanian",
        "secondary_languages": "Ottoman Turkish, Serbo-Croatian",
        "language_family": "Indo-European",
        "mebusan_members": "Hasan Prishtina, Riza Bey Kryeziu",
        "source_citation": "Gopčević (1889), p. 42"
      }
    },
    {
      "type": "Feature",
      "geometry": { "type": "Point", "coordinates": [31.2357, 30.0444] },
      "properties": {
        "location_name": "Cairo / Kahire",
        "primary_language": "Arabic",
        "secondary_languages": "Ottoman Turkish, French, Judeo-Arabic",
        "language_family": "Semitic",
        "mebusan_members": "N/A (Autonomous Khedivate; 1877 delegate: Abdallah Pasha)",
        "source_citation": "Lane (1836), p. 14"
      }
    }
  ]
}
